0 ARIANE 44L+3 R/B
1 23732U 95067C   13282.18278611  .00000709  00000-0  65090-3 0  9959
2 23732 006.9108 091.8464 6871908 022.6156 341.2711 02.76926641163873
0 ARIANE 44L+3 R/B
1 23732U 95067C   13283.27223397  .00000690  00000-0  67405-3 0  9963
2 23732 006.9128 091.2935 6871729 023.7149 347.3743 02.76930204163903
0 ARIANE 44L+3 R/B
1 23732U 95067C   13285.83297894  .00000905  00000-0  70955-3 0  9974
2 23732 006.9169 089.9942 6871323 026.2976 020.3049 02.76936153163979
0 ARIANE 44L+3 R/B
1 23732U 95067C   13287.24353448  .00001182  00000-0  78734-3 0  9981
2 23732 006.9188 089.2772 6871072 027.7197 346.5827 02.76939795164014
0 ARIANE 44L+3 R/B
1 23732U 95067C   13288.32926373  .00001563  00000-0  99174-3 0  9999
2 23732 006.9198 088.7244 6870808 028.8150 349.0307 02.76945084164042
0 ARIANE 44L+3 R/B
1 23732U 95067C   13290.50244910  .00001357  00000-0  92192-3 0    10
2 23732 006.9240 087.6137 6872868 031.0203 355.6963 02.76946928164119
0 ARIANE 44L+3 R/B
1 23732U 95067C   13290.62368854  .00001512  00000-0  93474-3 0    03
2 23732 006.9228 087.5620 6870596 031.1206 116.5824 02.76950359164103
0 ARIANE 44L+3 R/B
1 23732U 95067C   13292.52179647  .00001392  00000-0  96535-3 0    12
2 23732 006.9256 086.6016 6870415 033.0267 209.0412 02.76956190164156
0 ARIANE 44L+3 R/B
1 23732U 95067C   13293.53323675  .00001225  00000-0  93167-3 0    20
2 23732 006.9269 086.0887 6870275 034.0444 137.4808 02.76959062164189
0 ARIANE 44L+3 R/B
1 23732U 95067C   13294.86498260  .00001121  00000-0  96665-3 0    32
2 23732 006.9285 085.4136 6870147 035.3855 025.2942 02.76962842164223
